[{"OBJECT_NAME":"ATLAS CENTAUR 2","OBJECT_ID":"1963-047A","EPOCH":"2026-03-05T19:12:23.455008","MEAN_MOTION":14.12053945,"ECCENTRICITY":0.0547771,"INCLINATION":30.3516,"RA_OF_ASC_NODE":217.3796,"ARG_OF_PERICENTER":46.0087,"MEAN_ANOMALY":318.4365,"EPHEMERIS_TYPE":0,"CLASSIFICATION_TYPE":"U","NORAD_CAT_ID":694,"ELEMENT_SET_NO":999,"REV_AT_EPOCH":13107,"BSTAR":0.00022416,"MEAN_MOTION_DOT":1.912e-5,"MEAN_MOTION_DDOT":0},{"OBJECT_NAME":"THOR AGENA D R/B","OBJECT_ID":"1964-002A","EPOCH":"2026-03-05T14:45:22.781664","MEAN_MOTION":14.34017472,"ECCENTRICITY":0.003191,"INCLINATION":99.1228,"RA_OF_ASC_NODE":77.7302,"ARG_OF_PERICENTER":270.3392,"MEAN_ANOMALY":89.4134,"EPHEMERIS_TYPE":0,"CLASSIFICATION_TYPE":"U","NORAD_CAT_ID":733,"ELEMENT_SET_NO":999,"REV_AT_EPOCH":23771,"BSTAR":0.00013186,"MEAN_MOTION_DOT":3.21e-6,"MEAN_MOTION_DDOT":0},{"OBJECT_NAME":"SL-3 R/B","OBJECT_ID":"1964-053B","EPOCH":"2026-03-05T12:25:04.776096","MEAN_MOTION":14.61364085,"ECCENTRICITY":0.0079584,"INCLINATION":65.0788,"RA_OF_ASC_NODE":343.4686,"ARG_OF_PERICENTER":293.5469,"MEAN_ANOMALY":65.7285,"EPHEMERIS_TYPE":0,"CLASSIFICATION_TYPE":"U","NORAD_CAT_ID":877,"ELEMENT_SET_NO":999,"REV_AT_EPOCH":26618,"BSTAR":0.00012211,"MEAN_MOTION_DOT":5.07e-6,"MEAN_MOTION_DDOT":0},{"OBJECT_NAME":"SL-8 R/B","OBJECT_ID":"1967-045B","EPOCH":"2026-03-05T05:10:01.400736","MEAN_MOTION":14.45617853,"ECCENTRICITY":0.006401,"INCLINATION":74.0138,"RA_OF_ASC_NODE":356.4442,"ARG_OF_PERICENTER":3.7658,"MEAN_ANOMALY":356.3968,"EPHEMERIS_TYPE":0,"CLASSIFICATION_TYPE":"U","NORAD_CAT_ID":2802,"ELEMENT_SET_NO":999,"REV_AT_EPOCH":8837,"BSTAR":0.00018202,"MEAN_MOTION_DOT":6.31e-6,"MEAN_MOTION_DDOT":0},{"OBJECT_NAME":"SL-8 R/B","OBJECT_ID":"1968-040B","EPOCH":"2026-03-05T20:23:34.264032","MEAN_MOTION":15.03226988,"ECCENTRICITY":0.0024028,"INCLINATION":74.0327,"RA_OF_ASC_NODE":321.5405,"ARG_OF_PERICENTER":146.6954,"MEAN_ANOMALY":213.5752,"EPHEMERIS_TYPE":0,"CLASSIFICATION_TYPE":"U","NORAD_CAT_ID":3230,"ELEMENT_SET_NO":999,"REV_AT_EPOCH":8943,"BSTAR":0.000364,"MEAN_MOTION_DOT":4.92e-5,"MEAN_MOTION_DDOT":0},{"OBJECT_NAME":"OAO 2","OBJECT_ID":"1968-110A","EPOCH":"2026-03-05T17:06:27.018144","MEAN_MOTION":14.47305208,"ECCENTRICITY":0.0005424,"INCLINATION":34.9933,"RA_OF_ASC_NODE":287.4281,"ARG_OF_PERICENTER":173.7452,"MEAN_ANOMALY":186.3307,"EPHEMERIS_TYPE":0,"CLASSIFICATION_TYPE":"U","NORAD_CAT_ID":3597,"ELEMENT_SET_NO":999,"REV_AT_EPOCH":1852,"BSTAR":0.00010766,"MEAN_MOTION_DOT":3.81e-6,"MEAN_MOTION_DDOT":0},{"OBJECT_NAME":"ISIS 1","OBJECT_ID":"1969-009A","EPOCH":"2026-03-05T17:41:28.436352","MEAN_MOTION":11.30412798,"ECCENTRICITY":0.1707813,"INCLINATION":88.4546,"RA_OF_ASC_NODE":155.7396,"ARG_OF_PERICENTER":97.1352,"MEAN_ANOMALY":282.6082,"EPHEMERIS_TYPE":0,"CLASSIFICATION_TYPE":"U","NORAD_CAT_ID":3669,"ELEMENT_SET_NO":999,"REV_AT_EPOCH":34808,"BSTAR":0.00014148,"MEAN_MOTION_DOT":2.22e-6,"MEAN_MOTION_DDOT":0},{"OBJECT_NAME":"SERT 2","OBJECT_ID":"1970-009A","EPOCH":"2026-03-05T17:20:45.975840","MEAN_MOTION":13.58729431,"ECCENTRICITY":0.0004888,"INCLINATION":99.2754,"RA_OF_ASC_NODE":8.0334,"ARG_OF_PERICENTER":165.5471,"MEAN_ANOMALY":258.6043,"EPHEMERIS_TYPE":0,"CLASSIFICATION_TYPE":"U","NORAD_CAT_ID":4327,"ELEMENT_SET_NO":999,"REV_AT_EPOCH":77935,"BSTAR":7.7313e-5,"MEAN_MOTION_DOT":1.5e-7,"MEAN_MOTION_DDOT":0},{"OBJECT_NAME":"SL-3 R/B","OBJECT_ID":"1971-028B","EPOCH":"2026-03-05T19:26:22.284960","MEAN_MOTION":15.60747903,"ECCENTRICITY":0.0013782,"INCLINATION":81.2344,"RA_OF_ASC_NODE":56.8193,"ARG_OF_PERICENTER":302.3773,"MEAN_ANOMALY":57.6146,"EPHEMERIS_TYPE":0,"CLASSIFICATION_TYPE":"U","NORAD_CAT_ID":5118,"ELEMENT_SET_NO":999,"REV_AT_EPOCH":98806,"BSTAR":0.00057319,"MEAN_MOTION_DOT":0.00048072,"MEAN_MOTION_DDOT":0},{"OBJECT_NAME":"ASTEX 1","OBJECT_ID":"1971-089A","EPOCH":"2026-03-05T18:04:05.955744","MEAN_MOTION":14.50765145,"ECCENTRICITY":0.0017862,"INCLINATION":92.7127,"RA_OF_ASC_NODE":150.4867,"ARG_OF_PERICENTER":97.4917,"MEAN_ANOMALY":262.8319,"EPHEMERIS_TYPE":0,"CLASSIFICATION_TYPE":"U","NORAD_CAT_ID":5560,"ELEMENT_SET_NO":999,"REV_AT_EPOCH":86173,"BSTAR":0.00017248,"MEAN_MOTION_DOT":6.79e-6,"MEAN_MOTION_DDOT":0},{"OBJECT_NAME":"SL-8 R/B","OBJECT_ID":"1971-119B","EPOCH":"2026-03-05T16:35:29.397408","MEAN_MOTION":14.37733005,"ECCENTRICITY":0.0549555,"INCLINATION":73.8883,"RA_OF_ASC_NODE":183.191,"ARG_OF_PERICENTER":150.6609,"MEAN_ANOMALY":212.6635,"EPHEMERIS_TYPE":0,"CLASSIFICATION_TYPE":"U","NORAD_CAT_ID":5730,"ELEMENT_SET_NO":999,"REV_AT_EPOCH":65491,"BSTAR":0.00077655,"MEAN_MOTION_DOT":0.00014945,"MEAN_MOTION_DDOT":0},{"OBJECT_NAME":"OAO 3 (COPERNICUS)","OBJECT_ID":"1972-065A","EPOCH":"2026-03-05T20:07:39.818784","MEAN_MOTION":14.59994522,"ECCENTRICITY":0.0006103,"INCLINATION":35.0064,"RA_OF_ASC_NODE":319.2569,"ARG_OF_PERICENTER":134.1241,"MEAN_ANOMALY":290.4431,"EPHEMERIS_TYPE":0,"CLASSIFICATION_TYPE":"U","NORAD_CAT_ID":6153,"ELEMENT_SET_NO":999,"REV_AT_EPOCH":84563,"BSTAR":0.00011519,"MEAN_MOTION_DOT":5.4e-6,"MEAN_MOTION_DDOT":0},{"OBJECT_NAME":"ATLAS CENTAUR R/B","OBJECT_ID":"1972-065B","EPOCH":"2026-03-05T20:12:42.057216","MEAN_MOTION":14.77675433,"ECCENTRICITY":0.0033983,"INCLINATION":35.0026,"RA_OF_ASC_NODE":328.3015,"ARG_OF_PERICENTER":336.5094,"MEAN_ANOMALY":23.4054,"EPHEMERIS_TYPE":0,"CLASSIFICATION_TYPE":"U","NORAD_CAT_ID":6155,"ELEMENT_SET_NO":999,"REV_AT_EPOCH":84069,"BSTAR":0.00025765,"MEAN_MOTION_DOT":1.87e-5,"MEAN_MOTION_DDOT":0},{"OBJECT_NAME":"SL-8 R/B","OBJECT_ID":"1975-112B","EPOCH":"2026-03-05T07:54:30.667968","MEAN_MOTION":14.38200686,"ECCENTRICITY":0.0014529,"INCLINATION":74.0619,"RA_OF_ASC_NODE":26.932,"ARG_OF_PERICENTER":122.034,"MEAN_ANOMALY":238.2228,"EPHEMERIS_TYPE":0,"CLASSIFICATION_TYPE":"U","NORAD_CAT_ID":8459,"ELEMENT_SET_NO":999,"REV_AT_EPOCH":63124,"BSTAR":0.00011859,"MEAN_MOTION_DOT":3.34e-6,"MEAN_MOTION_DDOT":0},{"OBJECT_NAME":"SL-3 R/B","OBJECT_ID":"1977-057B","EPOCH":"2026-03-05T18:27:47.019744","MEAN_MOTION":15.45361859,"ECCENTRICITY":0.0006267,"INCLINATION":97.5765,"RA_OF_ASC_NODE":236.518,"ARG_OF_PERICENTER":301.5835,"MEAN_ANOMALY":58.4801,"EPHEMERIS_TYPE":0,"CLASSIFICATION_TYPE":"U","NORAD_CAT_ID":10114,"ELEMENT_SET_NO":999,"REV_AT_EPOCH":66772,"BSTAR":0.00034274,"MEAN_MOTION_DOT":0.00016289,"MEAN_MOTION_DDOT":0},{"OBJECT_NAME":"SEASAT 1","OBJECT_ID":"1978-064A","EPOCH":"2026-03-05T16:35:57.699456","MEAN_MOTION":14.46156505,"ECCENTRICITY":0.0002223,"INCLINATION":108.0118,"RA_OF_ASC_NODE":117.1103,"ARG_OF_PERICENTER":287.0341,"MEAN_ANOMALY":73.0561,"EPHEMERIS_TYPE":0,"CLASSIFICATION_TYPE":"U","NORAD_CAT_ID":10967,"ELEMENT_SET_NO":999,"REV_AT_EPOCH":50593,"BSTAR":0.00012535,"MEAN_MOTION_DOT":3.11e-6,"MEAN_MOTION_DDOT":0},{"OBJECT_NAME":"SL-14 R/B","OBJECT_ID":"1979-011B","EPOCH":"2026-03-05T13:21:02.920320","MEAN_MOTION":14.9190286,"ECCENTRICITY":0.0017573,"INCLINATION":82.5213,"RA_OF_ASC_NODE":100.4941,"ARG_OF_PERICENTER":73.2348,"MEAN_ANOMALY":287.0798,"EPHEMERIS_TYPE":0,"CLASSIFICATION_TYPE":"U","NORAD_CAT_ID":11267,"ELEMENT_SET_NO":999,"REV_AT_EPOCH":52816,"BSTAR":7.5615e-5,"MEAN_MOTION_DOT":7.92e-6,"MEAN_MOTION_DDOT":0}]
